{
  "type": "FeatureCollection",
  "features": [
    {
      "type": "Feature",
      "properties": {
        "norad_id": 67011,
        "name": "STARLINK-36167",
        "group": "last-30-days",
        "lat": -44.80576054417513,
        "lon": 134.62425354019837,
        "alt_km": 321.10024735810657,
        "timestamp": "2025-12-23T05:02:10.752461+00:00",
        "meta_object_name": "STARLINK-36167",
        "meta_object_id": "2025-293J",
        "meta_epoch": "2025-12-22T22:00:03.000096",
        "meta_mean_motion": 15.85943272,
        "meta_eccentricity": 0.00039978,
        "meta_inclination": 69.9939,
        "meta_ra_of_asc_node": 294.2505,
        "meta_arg_of_pericenter": 270.8405,
        "meta_mean_anomaly": 85.1086,
        "meta_ephemeris_type": 0,
        "meta_classification_type": "U",
        "meta_norad_cat_id": 67011,
        "meta_element_set_no": 999,
        "meta_rev_at_epoch": 175,
        "meta_bstar": -0.0078172485,
        "meta_mean_motion_dot": -0.01677471,
        "meta_mean_motion_ddot": 0,
        "tle_line1": "1 67011U 25293J   25356.91670139 -.01677471  00000+0 -78172-2 0  9994",
        "tle_line2": "2 67011  69.9939 294.2505 0003997 270.8405  85.1086 15.85943272  1750"
      },
      "geometry": {
        "type": "Point",
        "coordinates": [
          134.62425354019837,
          -44.80576054417513
        ]
      }
    },
    {
      "type": "Feature",
      "properties": {
        "norad_id": 67012,
        "name": "STARLINK-36175",
        "group": "last-30-days",
        "lat": -49.09515570934901,
        "lon": 138.2719768176413,
        "alt_km": 321.1665183573177,
        "timestamp": "2025-12-23T05:02:10.752474+00:00",
        "meta_object_name": "STARLINK-36175",
        "meta_object_id": "2025-293K",
        "meta_epoch": "2025-12-22T22:00:03.000096",
        "meta_mean_motion": 15.85908832,
        "meta_eccentricity": 0.00037933,
        "meta_inclination": 69.9938,
        "meta_ra_of_asc_node": 294.2451,
        "meta_arg_of_pericenter": 265.5057,
        "meta_mean_anomaly": 95.4398,
        "meta_ephemeris_type": 0,
        "meta_classification_type": "U",
        "meta_norad_cat_id": 67012,
        "meta_element_set_no": 999,
        "meta_rev_at_epoch": 175,
        "meta_bstar": -0.0078210363,
        "meta_mean_motion_dot": -0.01675465,
        "meta_mean_motion_ddot": 0,
        "tle_line1": "1 67012U 25293K   25356.91670139 -.01675465  00000+0 -78210-2 0  9999",
        "tle_line2": "2 67012  69.9938 294.2451 0003793 265.5057  95.4398 15.85908832  1751"
      },
      "geometry": {
        "type": "Point",
        "coordinates": [
          138.2719768176413,
          -49.09515570934901
        ]
      }
    },
    {
      "type": "Feature",
      "properties": {
        "norad_id": 67013,
        "name": "STARLINK-35856",
        "group": "last-30-days",
        "lat": -51.34692819789076,
        "lon": 140.49968308823244,
        "alt_km": 321.3041812800511,
        "timestamp": "2025-12-23T05:02:10.752488+00:00",
        "meta_object_name": "STARLINK-35856",
        "meta_object_id": "2025-293L",
        "meta_epoch": "2025-12-22T22:00:03.000096",
        "meta_mean_motion": 15.85882823,
        "meta_eccentricity": 0.00037218,
        "meta_inclination": 69.9937,
        "meta_ra_of_asc_node": 294.2414,
        "meta_arg_of_pericenter": 266.4007,
        "meta_mean_anomaly": 97.2409,
        "meta_ephemeris_type": 0,
        "meta_classification_type": "U",
        "meta_norad_cat_id": 67013,
        "meta_element_set_no": 999,
        "meta_rev_at_epoch": 175,
        "meta_bstar": -0.0078232044,
        "meta_mean_motion_dot": -0.01673926,
        "meta_mean_motion_ddot": 0,
        "tle_line1": "1 67013U 25293L   25356.91670139 -.01673926  00000+0 -78232-2 0  9994",
        "tle_line2": "2 67013  69.9937 294.2414 0003721 266.4007  97.2409 15.85882823  1750"
      },
      "geometry": {
        "type": "Point",
        "coordinates": [
          140.49968308823244,
          -51.34692819789076
        ]
      }
    },
    {
      "type": "Feature",
      "properties": {
        "norad_id": 67014,
        "name": "STARLINK-36207",
        "group": "last-30-days",
        "lat": -53.42401170241468,
        "lon": 142.80451050701856,
        "alt_km": 321.18061842519637,
        "timestamp": "2025-12-23T05:02:10.752498+00:00",
        "meta_object_name": "STARLINK-36207",
        "meta_object_id": "2025-293M",
        "meta_epoch": "2025-12-22T22:00:03.000096",
        "meta_mean_motion": 15.85866206,
        "meta_eccentricity": 0.00040455,
        "meta_inclination": 69.9941,
        "meta_ra_of_asc_node": 294.2388,
        "meta_arg_of_pericenter": 267.4825,
        "meta_mean_anomaly": 98.6921,
        "meta_ephemeris_type": 0,
        "meta_classification_type": "U",
        "meta_norad_cat_id": 67014,
        "meta_element_set_no": 999,
        "meta_rev_at_epoch": 181,
        "meta_bstar": -0.0078371117,
        "meta_mean_motion_dot": -0.01675727,
        "meta_mean_motion_ddot": 0,
        "tle_line1": "1 67014U 25293M   25356.91670139 -.01675727  00000+0 -78371-2 0  9990",
        "tle_line2": "2 67014  69.9941 294.2388 0004045 267.4825  98.6921 15.85866206  1813"
      },
      "geometry": {
        "type": "Point",
        "coordinates": [
          142.80451050701856,
          -53.42401170241468
        ]
      }
    },
    {
      "type": "Feature",
      "properties": {
        "norad_id": 67015,
        "name": "STARLINK-36093",
        "group": "last-30-days",
        "lat": -57.372080178478036,
        "lon": 148.07906058226325,
        "alt_km": 321.2359194901701,
        "timestamp": "2025-12-23T05:02:10.752508+00:00",
        "meta_object_name": "STARLINK-36093",
        "meta_object_id": "2025-293N",
        "meta_epoch": "2025-12-22T22:00:03.000096",
        "meta_mean_motion": 15.85831451,
        "meta_eccentricity": 0.00040812,
        "meta_inclination": 69.9936,
        "meta_ra_of_asc_node": 294.2323,
        "meta_arg_of_pericenter": 267.377,
        "meta_mean_anomaly": 103.7953,
        "meta_ephemeris_type": 0,
        "meta_classification_type": "U",
        "meta_norad_cat_id": 67015,
        "meta_element_set_no": 999,
        "meta_rev_at_epoch": 175,
        "meta_bstar": -0.0078486087,
        "meta_mean_motion_dot": -0.0167543,
        "meta_mean_motion_ddot": 0,
        "tle_line1": "1 67015U 25293N   25356.91670139 -.01675430  00000+0 -78486-2 0  9999",
        "tle_line2": "2 67015  69.9936 294.2323 0004081 267.3770 103.7953 15.85831451  1755"
      },
      "geometry": {
        "type": "Point",
        "coordinates": [
          148.07906058226325,
          -57.372080178478036
        ]
      }
    },
    {
      "type": "Feature",
      "properties": {
        "norad_id": 67016,
        "name": "STARLINK-36120",
        "group": "last-30-days",
        "lat": -55.31994120305339,
        "lon": 145.16855253629421,
        "alt_km": 321.1885705249979,
        "timestamp": "2025-12-23T05:02:10.752518+00:00",
        "meta_object_name": "STARLINK-36120",
        "meta_object_id": "2025-293P",
        "meta_epoch": "2025-12-22T22:00:03.000096",
        "meta_mean_motion": 15.8585304,
        "meta_eccentricity": 0.00040603,
        "meta_inclination": 69.9938,
        "meta_ra_of_asc_node": 294.2357,
        "meta_arg_of_pericenter": 266.8427,
        "meta_mean_anomaly": 101.6925,
        "meta_ephemeris_type": 0,
        "meta_classification_type": "U",
        "meta_norad_cat_id": 67016,
        "meta_element_set_no": 999,
        "meta_rev_at_epoch": 175,
        "meta_bstar": -0.0078446229,
        "meta_mean_motion_dot": -0.01676203,
        "meta_mean_motion_ddot": 0,
        "tle_line1": "1 67016U 25293P   25356.91670139 -.01676203  00000+0 -78446-2 0  9995",
        "tle_line2": "2 67016  69.9938 294.2357 0004060 266.8427 101.6925 15.85853040  1759"
      },
      "geometry": {
        "type": "Point",
        "coordinates": [
          145.16855253629421,
          -55.31994120305339
        ]
      }
    },
    {
      "type": "Feature",
      "properties": {
        "norad_id": 67017,
        "name": "STARLINK-35498",
        "group": "last-30-days",
        "lat": -59.234255741355796,
        "lon": 151.12557783468105,
        "alt_km": 321.24468787331625,
        "timestamp": "2025-12-23T05:02:10.752529+00:00",
        "meta_object_name": "STARLINK-35498",
        "meta_object_id": "2025-293Q",
        "meta_epoch": "2025-12-22T22:00:03.000096",
        "meta_mean_motion": 15.85792675,
        "meta_eccentricity": 0.00041088,
        "meta_inclination": 69.9933,
        "meta_ra_of_asc_node": 294.2291,
        "meta_arg_of_pericenter": 266.1839,
        "meta_mean_anomaly": 107.4785,
        "meta_ephemeris_type": 0,
        "meta_classification_type": "U",
        "meta_norad_cat_id": 67017,
        "meta_element_set_no": 999,
        "meta_rev_at_epoch": 194,
        "meta_bstar": -0.0077339932,
        "meta_mean_motion_dot": -0.01651413,
        "meta_mean_motion_ddot": 0,
        "tle_line1": "1 67017U 25293Q   25356.91670139 -.01651413  00000+0 -77340-2 0  9994",
        "tle_line2": "2 67017  69.9933 294.2291 0004108 266.1839 107.4785 15.85792675  1940"
      },
      "geometry": {
        "type": "Point",
        "coordinates": [
          151.12557783468105,
          -59.234255741355796
        ]
      }
    }
  ]
}